CUBEBUG-2 (LO-74)
1 39440U 13066AA  26200.41472023  .00001910  00000-0  17976-3 0  9993
2 39440  97.8920 149.5375 0055553 281.0700  78.4276 14.93984149681801
FUNCUBE-1 (AO-73)
1 39444U 13066AE  26200.46791472  .00004303  00000-0  26567-3 0  9999
2 39444  97.8299 172.5997 0038010  93.7794 266.7781 15.09853025684532
UWE-3
1 39446U 13066AG  26200.43044749  .00002096  00000-0  18244-3 0  9996
2 39446  97.8723 156.7295 0047659 209.9305 149.9190 14.97216655682407
UNISAT-6
1 40012U 14033C   26200.40415317  .00001023  00000-0  11466-3 0  9990
2 40012  97.7915 352.5583 0043842 323.6354  36.1886 14.88375991650957
DUCHIFAT-1
1 40021U 14033M   26200.11833129  .00096187  00000-0  73779-3 0  9993
2 40021  98.0414 263.9486 0003298 230.7218 129.3750 15.71786235660754
LILACSAT-2
1 40908U 15049K   26200.57481634  .00011015  00000-0  18151-3 0  9995
2 40908  97.4625 238.6649 0008570 128.8438 231.3581 15.52456365600773
CAS-2T & KS-1Q
1 41847U 16066G   26200.44488473  .00000419  00000-0  67451-4 0  9996
2 41847  98.3811 275.8120 0342021  31.8841 330.2561 14.44774783509450
FOX-1B (AO-91)
1 43017U 17073E   26200.61611449  .00003138  00000-0  13857-3 0  9997
2 43017  97.4661  67.1701 0148412 216.0599 143.0552 15.13095443470291
FUNCUBE-3 (EO-79)/QB50P1
1 40025U 14033R   26200.30727439  .00004287  00000-0  21014-3 0  9999
2 40025  98.0971 213.7167 0010508 112.7163 247.5182 15.18701826657904
FOX-1A (AO-85)
1 40967U 15058D   26200.34570337  .00001693  00000-0  15937-3 0  9994
2 40967  64.7726 179.0327 0132708  44.2393 316.9236 14.91103340118360
DIWATA-2B (PO-101)
1 43678U 18084H   26200.57866589  .00001086  00000-0  91146-4 0  9993
2 43678  98.1215  38.2058 0012588  70.8897 289.3688 15.00573069421079
ESHAIL-2
1 43700U 18090A   26200.55418088  .00000140  00000-0  00000-0 0  9996
2 43700   0.0187  78.7935 0002394  78.6176   5.2205  1.00273568 28000
ITASAT-1
1 43786U 18099AE  26200.62435113  .00003259  00000-0  15690-3 0  9993
2 43786  97.4008 251.4933 0011118 232.9708 127.0510 15.19411242417837
FOX-1CLIFF (AO-95)
1 43770U 18099N   26200.12101160  .00006021  00000-0  22763-3 0  9992
2 43770  97.4363 260.2606 0007552 223.6290 136.4353 15.27321019418098
JY1SAT (JO-97)
1 43803U 18099AX  26200.12106041  .00009568  00000-0  28756-3 0  9999
2 43803  97.4105 263.0849 0007161 146.3661 213.8038 15.34595342418526
UWE-4
1 43880U 18111E   26200.29572160  .00018709  00000-0  35945-3 0  9991
2 43880  97.5832 130.2123 0006761 178.8954 181.2312 15.47979433415744
CAS-6 (TO-108)
1 44881U 19093C   26200.62348295  .00000672  00000-0  81806-4 0  9998
2 44881  97.7514 272.0629 0013140 346.8176  13.2695 14.86564844356237
DOSAAF-85 (RS-44)
1 44909U 19096E   26200.60644125  .00000006  00000-0 -28789-4 0  9994
2 44909  82.5239 318.1640 0218445  68.7297 293.6978 12.79748863306494
SALSAT (TUBSAT 22)
1 46495U 20068K   26200.45326485  .00003827  00000-0  13372-3 0  9990
2 46495  97.8865 205.4942 0009672 177.8105 182.3178 15.30206359320292
CAMSAT XW-3 (CAS-9)
1 50466U 21131B   26200.61187462  .00000236  00000-0  86640-4 0  9993
2 50466  98.4987 292.8268 0004315  19.0952 341.0398 14.41384001239787
ROBUSTA 1F (MTCUBE-2)
1 53109U 22080E   26200.24539926 -.00000003  00000-0  00000-0 0  9994
2 53109  70.1403 287.0980 0009086 282.5487  77.4156  6.42583325 94122
UMKA-1 (RS40S)
1 57172U 23091G   26200.59329639  .00002878  00000-0  13216-3 0  9994
2 57172  97.5029 259.1700 0012593  14.7959 345.3643 15.21148046168932
CUBESX-HSE-3 (RS42S)
1 57178U 23091N   26200.57884942  .00006654  00000-0  21807-3 0  9992
2 57178  97.5069 266.5900 0009230 345.5085  14.5891 15.31945972169389
MONITOR-3 (RS58S)
1 57180U 23091Q   26200.61100931  .00004983  00000-0  18265-3 0  9996
2 57180  97.5061 264.3057 0010526 353.8548   6.2561 15.28419823169243
MONITOR-4 (RS57S)
1 57182U 23091S   26200.58825534  .00005273  00000-0  19260-3 0  9996
2 57182  97.5054 264.2557 0010521 354.2170   5.8946 15.28507144169248
MONITOR-2 (RS39S)
1 57184U 23091U   26200.59009058  .00002300  00000-0  11254-3 0  9997
2 57184  97.5051 258.6660 0010951   9.3007 350.8428 15.19175800168879
SVYATOBOR-1 (RS60S)
1 57187U 23091X   26200.63022216  .00004246  00000-0  16247-3 0  9994
2 57187  97.5068 264.6351 0008279 348.2526  11.8519 15.27103593169263
VIZARD-METEO (RS38S)
1 57189U 23091Z   26200.57929637  .00008895  00000-0  24833-3 0  9996
2 57189  97.5069 270.7340 0005317 320.4736  39.6119 15.36954948169663
UTMN-2 (RS27S)
1 57203U 23091AP  26200.57901349  .00006409  00000-0  20501-3 0  9990
2 57203  97.5065 268.2632 0006337 332.6925  27.3983 15.32761429169502
POLYTECH UNIVERSE-3 (RS46S)
1 57191U 23091AB  26200.61285631  .00002236  00000-0  10865-3 0  9996
2 57191  97.5026 258.1928 0015642  22.9470 337.2460 15.19388926168878
