OBJECT_NAME,OBJECT_ID,EPOCH,MEAN_MOTION,ECCENTRICITY,INCLINATION,RA_OF_ASC_NODE,ARG_OF_PERICENTER,MEAN_ANOMALY,EPHEMERIS_TYPE,CLASSIFICATION_TYPE,NORAD_CAT_ID,ELEMENT_SET_NO,REV_AT_EPOCH,BSTAR,MEAN_MOTION_DOT,MEAN_MOTION_DDOT
CUBEBUG-2 (LO-74),2013-066AA,2026-07-19T09:57:11.827872,14.93984149,.00555526,97.8920,149.5375,281.0700,78.4276,0,U,39440,999,68180,.17976041E-3,.191E-4,0
FUNCUBE-1 (AO-73),2013-066AE,2026-07-19T11:13:47.831808,15.09853025,.00380098,97.8299,172.5997,93.7794,266.7781,0,U,39444,999,68453,.26567152E-3,.4303E-4,0
UWE-3,2013-066AG,2026-07-19T10:19:50.663136,14.97216655,.00476586,97.8723,156.7295,209.9305,149.9190,0,U,39446,999,68240,.18243742E-3,.2096E-4,0
UNISAT-6,2014-033C,2026-07-19T09:41:58.833888,14.88375991,.00438416,97.7915,352.5583,323.6354,36.1886,0,U,40012,999,65095,.11466391E-3,.1023E-4,0
DUCHIFAT-1,2014-033M,2026-07-19T02:50:23.823456,15.71786235,.00032981,98.0414,263.9486,230.7218,129.3750,0,U,40021,999,66075,.73778873E-3,.96187E-3,0
QB50P1,2014-033R,2026-07-19T07:22:28.507296,15.18701826,.00105077,98.0971,213.7167,112.7163,247.5182,0,U,40025,999,65790,.2101421E-3,.4287E-4,0
LILACSAT-2,2015-049K,2026-07-19T13:47:44.131776,15.52456365,.00085702,97.4625,238.6649,128.8438,231.3581,0,U,40908,999,60077,.18151121E-3,.11015E-3,0
FOX-1A (AO-85),2015-058D,2026-07-19T08:17:48.771168,14.91103340,.01327083,64.7726,179.0327,44.2393,316.9236,0,U,40967,999,11836,.15936763E-3,.1693E-4,0
CAS-2T & KS-1Q,2016-066G,2026-07-19T10:40:38.040672,14.44774783,.0342021,98.3811,275.8120,31.8841,330.2561,0,U,41847,999,50945,.67450533E-4,.419E-5,0
RADFXSAT (FOX-1B),2017-073E,2026-07-19T14:47:12.291936,15.13095443,.0148412,97.4661,67.1701,216.0599,143.0552,0,U,43017,999,47029,.13857197E-3,.3138E-4,0
DIWATA-2B,2018-084H,2026-07-19T13:53:16.732896,15.00573069,.00125882,98.1215,38.2058,70.8897,289.3688,0,U,43678,999,42107,.91146046E-4,.1086E-4,0
ES'HAIL 2,2018-090A,2026-07-19T13:18:01.228032,1.00273568,.00023942,0.0187,78.7935,78.6176,5.2205,0,U,43700,999,2800,0,.14E-5,0
FOX-1CLIFF (AO-95),2018-099N,2026-07-19T02:54:15.402240,15.27321019,.00075525,97.4363,260.2606,223.6290,136.4353,0,U,43770,999,41809,.22762983E-3,.6021E-4,0
ITASAT,2018-099AE,2026-07-19T14:59:03.937632,15.19411242,.00111179,97.4008,251.4933,232.9708,127.0510,0,U,43786,999,41783,.1569023E-3,.3259E-4,0
JY1SAT (JO-97),2018-099AX,2026-07-19T02:54:19.619424,15.34595342,.00071612,97.4105,263.0849,146.3661,213.8038,0,U,43803,999,41852,.28756169E-3,.9568E-4,0
UWE-4,2018-111E,2026-07-19T07:05:50.346240,15.47979433,.00067612,97.5832,130.2123,178.8954,181.2312,0,U,43880,999,41574,.35945089E-3,.18709E-3,0
TIANYAN 01,2019-093C,2026-07-19T14:57:48.926880,14.86564844,.00131396,97.7514,272.0629,346.8176,13.2695,0,U,44881,999,35623,.81805843E-4,.672E-5,0
RS-44 & BREEZE-KM R/B,2019-096E,2026-07-19T14:33:16.524000,12.79748863,.02184455,82.5239,318.1640,68.7297,293.6978,0,U,44909,999,30649,-.28788513E-4,.6E-7,0
SALSAT,2020-068K,2026-07-19T10:52:42.083040,15.30206359,.00096718,97.8865,205.4942,177.8105,182.3178,0,U,46495,999,32029,.13371977E-3,.3827E-4,0
XW-3 (CAS-9),2021-131B,2026-07-19T14:41:05.967168,14.41384001,.00043155,98.4987,292.8268,19.0952,341.0398,0,U,50466,999,23978,.86639724E-4,.236E-5,0
GREENCUBE (IO-117),2022-080E,2026-07-19T05:53:22.496064,6.42583325,.00090857,70.1403,287.0980,282.5487,77.4156,0,U,53109,999,9412,0,-.3E-7,0
UMKA 1 (RS40S),2023-091G,2026-07-19T14:14:20.808096,15.21148046,.00125933,97.5029,259.1700,14.7959,345.3643,0,U,57172,999,16893,.13216377E-3,.2878E-4,0
CUBESX-HSE 3 (RS42S),2023-091N,2026-07-19T13:53:32.589888,15.31945972,.00092299,97.5069,266.5900,345.5085,14.5891,0,U,57178,999,16938,.21806858E-3,.6654E-4,0
MONITOR-3 (RS58S),2023-091Q,2026-07-19T14:39:51.204384,15.28419823,.0010526,97.5061,264.3057,353.8548,6.2561,0,U,57180,999,16924,.18265187E-3,.4983E-4,0
MONITOR-4 (RS57S),2023-091S,2026-07-19T14:07:05.261376,15.28507144,.00105211,97.5054,264.2557,354.2170,5.8946,0,U,57182,999,16924,.19260136E-3,.5273E-4,0
MONITOR-2 (RS39S),2023-091U,2026-07-19T14:09:43.826112,15.19175800,.00109508,97.5051,258.6660,9.3007,350.8428,0,U,57184,999,16887,.1125366E-3,.23E-4,0
SVYATOBOR 1 (RS60S),2023-091X,2026-07-19T15:07:31.194624,15.27103593,.00082788,97.5068,264.6351,348.2526,11.8519,0,U,57187,999,16926,.16246549E-3,.4246E-4,0
VIZARD-METEO (RS38S),2023-091Z,2026-07-19T13:54:11.206368,15.36954948,.0005317,97.5069,270.7340,320.4736,39.6119,0,U,57189,999,16966,.24833195E-3,.8895E-4,0
POLYTECH-UNIVERSE 3 (RS46S),2023-091AB,2026-07-19T14:42:30.785184,15.19388926,.00156417,97.5026,258.1928,22.9470,337.2460,0,U,57191,999,16887,.10865052E-3,.2236E-4,0
UTMN 2 (RS27S),2023-091AP,2026-07-19T13:53:46.765536,15.32761429,.00063369,97.5065,268.2632,332.6925,27.3983,0,U,57203,999,16950,.20501275E-3,.6409E-4,0
